ORBCOMM FM37            
1 33064U 08031E   24216.94773328  .00003345  00000+0  49907-3 0  9992
2 33064  48.4408  48.9547 0005367 101.8200  44.1670 14.76943246867106
ORBCOMM FM40            
1 33065U 08031F   24216.92582285  .00004530  00000+0  64329-3 0  9993
2 33065  48.4430  37.5669 0006599 111.9506   3.1917 14.78399313867156
VESSELSAT 1             
1 37840U 11058C   24217.20220534  .00000456  00000+0  10438-3 0  9994
2 37840  19.9604 211.7494 0013526 300.4230  59.4838 14.11182497661705
ORBCOMM FM109           
1 40086U 14040A   24216.89666590  .00001627  00000+0  39644-3 0  9995
2 40086  47.0041  73.5475 0002202 290.5363  69.5286 14.56893514534779
ORBCOMM FM107           
1 40087U 14040B   24216.86187887  .00001448  00000+0  35678-3 0  9994
2 40087  47.0060  74.6858 0001714 259.4120 100.6573 14.56887475534843
ORBCOMM FM106           
1 40088U 14040C   24216.51776829  .00002012  00000+0  38418-3 0  9990
2 40088  47.0599 283.1316 0017252  27.9081 332.2731 14.67386115536999
ORBCOMM FM111           
1 40089U 14040D   24217.17601857  .00005409  00000+0  68756-3 0  9993
2 40089  47.0025 170.7799 0032161 117.4766 242.9405 14.82391060543121
ORBCOMM FM104           
1 40090U 14040E   24217.05917328  .00001226  00000+0  31774-3 0  9998
2 40090  47.0055 103.6429 0017000 197.6157 162.4140 14.55352260534503
